NORAD_CAT_ID,OBJECT_NAME,OBJECT_TYPE,EPOCH,MEAN_MOTION,ECCENTRICITY,INCLINATION,RA_OF_ASC_NODE,ARG_OF_PERICENTER,MEAN_ANOMALY,BSTAR,MEAN_MOTION_DOT,MEAN_MOTION_DDOT,TLE_LINE0,TLE_LINE1,TLE_LINE2,SEMIMAJOR_AXIS,PERIOD,APOGEE,PERIGEE,DECAYED
53806.0,STARLINK-4768,PAYLOAD,2022-12-28 16:00:00,15.4984204,0.0001926,53.2127,90.5735,41.6103,205.1946,0.00099817,0.00056525,0.0,0 STARLINK-4768,1 53806U 22111AK  22362.66667824  .00056525  00000-0  99817-3 0  9999,2 53806  53.2127  90.5735 0001926  41.6103 205.1946 15.49842040 17008,6795.325,92.913,418.499,415.881,0.0
53806.0,STARLINK-4768,PAYLOAD,2022-12-28 22:00:00,15.49891979,0.0001809,53.2125,89.3769,44.1504,158.3117,-0.00046941,-0.00027009,0.0,0 STARLINK-4768,1 53806U 22111AK  22362.91667824 -.00027009  00000-0 -46941-3 0  9994,2 53806  53.2125  89.3769 0001809  44.1504 158.3117 15.49891979  1302,6795.179,92.91,418.273,415.815,0.0
53806.0,STARLINK-4768,PAYLOAD,2022-12-29 14:00:01,15.50319857,0.0001421,53.2165,86.1879,46.7206,277.5915,-0.029693,-0.01545757,0.0,0 STARLINK-4768,1 53806U 22111AK  22363.58334491 -.01545757  00000-0 -29693-1 0  9998,2 53806  53.2165  86.1879 0001421  46.7206 277.5915 15.50319857  1302,6793.928000000001,92.884,416.759,414.828,0.0
53806.0,STARLINK-4768,PAYLOAD,2022-12-29 16:00:00,15.49889521,0.0001511,53.2169,85.7891,44.2932,25.3817,-0.023974,-0.01236683,0.0,0 STARLINK-4768,1 53806U 22111AK  22363.66667824 -.01236683  00000-0 -23974-1 0  9997,2 53806  53.2169  85.7891 0001511  44.2932  25.3817 15.49889521 17152,6795.186,92.91,418.078,416.024,0.0
53806.0,STARLINK-4768,PAYLOAD,2022-12-30 08:00:01,15.48196405,0.0001719,53.2172,82.6051,43.1885,146.2259,-0.023349,-0.01142959,0.0,0 STARLINK-4768,1 53806U 22111AK  22364.33334491 -.01142959  00000-0 -23349-1 0  9991,2 53806  53.2172  82.6051 0001719  43.1885 146.2259 15.48196405 17261,6800.139,93.011,423.173,420.835,0.0
53806.0,STARLINK-4768,PAYLOAD,2022-12-30 14:00:01,15.47607062,0.0001652,53.2169,81.4158,42.8685,100.417,-0.024495,-0.01171787,0.0,0 STARLINK-4768,1 53806U 22111AK  22364.58334491 -.01171787  00000-0 -24495-1 0  9992,2 53806  53.2169  81.4158 0001652  42.8685 100.4170 15.47607062  1309,6801.865,93.047,424.854,422.607,0.0
53806.0,STARLINK-4768,PAYLOAD,2022-12-31 08:00:01,15.45756148,0.0001879,53.2175,77.8468,26.1109,335.5325,-0.025465,-0.01144755,0.0,0 STARLINK-4768,1 53806U 22111AK  22365.33334491 -.01144755  00000-0 -25465-1 0  9999,2 53806  53.2175  77.8468 0001879  26.1109 335.5325 15.45756148 17416,6807.294,93.158,430.43800000000016,427.88,0.0
53806.0,STARLINK-4768,PAYLOAD,2022-12-31 14:00:01,15.45147749,0.000159,53.2172,76.6617,40.2213,273.1022,-0.026062,-0.01146974,0.0,0 STARLINK-4768,1 53806U 22111AK  22365.58334491 -.01146974  00000-0 -26062-1 0  9995,2 53806  53.2172  76.6617 0001590  40.2213 273.1022 15.45147749  1302,6809.081,93.195,432.029,429.86300000000006,0.0
53806.0,STARLINK-4768,PAYLOAD,2022-12-31 22:00:00,15.44347914,0.0001661,53.2168,75.0795,33.7893,334.2491,-0.0272829999999999,-0.01166393,0.0,0 STARLINK-4768,1 53806U 22111AK  22365.91667824 -.01166393  00000-0 -27283-1 0  9994,2 53806  53.2168  75.0795 0001661  33.7893 334.2491 15.44347914  1301,6811.432,93.243,434.42800000000005,432.165,0.0
53806.0,STARLINK-4768,PAYLOAD,2023-01-01 10:00:00,15.43109031,0.0001857,53.2175,72.7124,34.1889,234.105,-0.027745,-0.01139629,0.0,0 STARLINK-4768,1 53806U 22111AK  23001.41667824 -.01139629  00000-0 -27745-1 0  9992,2 53806  53.2175  72.7124 0001857  34.1889 234.1050 15.43109031 17587,6815.0769999999975,93.318,438.208,435.676,0.0
53806.0,STARLINK-4768,PAYLOAD,2023-01-01 14:00:01,15.42718267,0.0001617,53.2172,71.9252,41.8388,72.7075,-0.028743,-0.01162835,0.0,0 STARLINK-4768,1 53806U 22111AK  23001.58334491 -.01162835  00000-0 -28743-1 0  9995,2 53806  53.2172  71.9252 0001617  41.8388  72.7075 15.42718267  1302,6816.228,93.342,439.195,436.991,0.0
53806.0,STARLINK-4768,PAYLOAD,2023-01-02 00:00:00,15.4168463,0.0001737,53.2174,69.9546,33.8126,235.3235,-0.0290829999999999,-0.01138563,0.0,0 STARLINK-4768,1 53806U 22111AK  23002.00001157 -.01138563  00000-0 -29083-1 0  9992,2 53806  53.2174  69.9546 0001737  33.8126 235.3235 15.41684630  1301,6819.274,93.404,442.324,439.955,0.0
53806.0,STARLINK-4768,PAYLOAD,2023-01-02 14:00:01,15.4028483,0.0001536,53.217,67.2064,47.8267,219.1429,-0.031458,-0.01171971,0.0,0 STARLINK-4768,1 53806U 22111AK  23002.58334491 -.01171971  00000-0 -31458-1 0  9994,2 53806  53.2170  67.2064 0001536  47.8267 219.1429 15.40284830 17760,6823.405,93.489,446.318,444.222,0.0
53806.0,STARLINK-4768,PAYLOAD,2023-01-02 22:00:00,15.39448885,0.0001386999999999,53.2171,65.6355,42.1054,273.7297,-0.031447,-0.01142234,0.0,0 STARLINK-4768,1 53806U 22111AK  23002.91667824 -.01142234  00000-0 -31447-1 0  9998,2 53806  53.2171  65.6355 0001387  42.1054 273.7297 15.39448885  1304,6825.875,93.54,448.687,446.793,0.0
53806.0,STARLINK-4768,PAYLOAD,2023-01-03 14:00:01,15.3782538,0.0001473,53.2169,62.5048,47.2914,3.3138,-0.033315,-0.01146721,0.0,0 STARLINK-4768,1 53806U 22111AK  23003.58334491 -.01146721  00000-0 -33315-1 0  9994,2 53806  53.2169  62.5048 0001473  47.2914   3.3138 15.37825380  1301,6830.678000000001,93.639,453.549,451.537,0.0
53806.0,STARLINK-4768,PAYLOAD,2023-01-03 16:00:01,15.37615739,0.0001548,53.217,62.1132,50.1073,102.1368,-0.033248,-0.01137476,0.0,0 STARLINK-4768,1 53806U 22111AK  23003.66668981 -.01137476  00000-0 -33248-1 0  9999,2 53806  53.2170  62.1132 0001548  50.1073 102.1368 15.37615739 17939,6831.299,93.651,454.222,452.107,0.0
53806.0,STARLINK-4768,PAYLOAD,2023-01-04 14:00:01,15.35379339,0.000167,53.217,57.8206,47.6479,137.8492,-0.035778,-0.01138301,0.0,0 STARLINK-4768,1 53806U 22111AK  23004.58335648 -.01138301  00000-0 -35778-1 0  9990,2 53806  53.2170  57.8206 0001670  47.6479 137.8492 15.35379339  1307,6837.931,93.788,460.93800000000016,458.654,0.0
53806.0,STARLINK-4768,PAYLOAD,2023-01-04 16:00:00,15.35176087,0.0001464,53.217,57.4304,46.2061,240.066,-0.03605,-0.01139323,0.0,0 STARLINK-4768,1 53806U 22111AK  23004.66667824 -.01139323  00000-0 -36050-1 0  9992,2 53806  53.2170  57.4304 0001464  46.2061 240.0660 15.35176087 18087,6838.535,93.8,461.401,459.398,0.0
53806.0,STARLINK-4768,PAYLOAD,2023-01-04 22:00:00,15.34375403,0.0001415,53.2141,56.2644,95.6641,132.9007,-0.028654,-0.00889392,0.0,0 STARLINK-4768,1 53806U 22111AK  23004.91667824 -.00889392  00000-0 -28654-1 0  9998,2 53806  53.2141  56.2644 0001415  95.6641 132.9007 15.34375403  1300,6840.913000000001,93.849,463.746,461.81,0.0
53806.0,STARLINK-4768,PAYLOAD,2023-01-05 14:00:01,15.32920743,0.0001065999999999,53.2142,53.1569,84.2824,227.2151,-0.037443,-0.01104217,0.0,0 STARLINK-4768,1 53806U 22111AK  23005.58334491 -.01104217  00000-0 -37443-1 0  9996,2 53806  53.2142  53.1569 0001066  84.2824 227.2151 15.32920743 18220,6845.24,93.938,467.835,466.376,0.0
53806.0,STARLINK-4768,PAYLOAD,2023-01-05 20:00:01,15.32329163,0.0001184,53.2143,51.9914,88.7096,162.9185,-0.039868,-0.01149608,0.0,0 STARLINK-4768,1 53806U 22111AK  23005.83334491 -.01149608  00000-0 -39868-1 0  9990,2 53806  53.2143  51.9914 0001184  88.7096 162.9185 15.32329163  1304,6847.002,93.975,469.67800000000005,468.056,0.0
53806.0,STARLINK-4768,PAYLOAD,2023-01-06 08:00:01,15.31108877,0.0001312,53.2142,49.6672,80.5697,49.6721,-0.04162,-0.01154472,0.0,0 STARLINK-4768,1 53806U 22111AK  23006.33334491 -.01154472  00000-0 -41620-1 0  9990,2 53806  53.2142  49.6672 0001312  80.5697  49.6721 15.31108877 18343,6850.64,94.049,473.403,471.606,0.0
53806.0,STARLINK-4768,PAYLOAD,2023-01-06 22:00:00,15.29653914,0.0001205,53.2141,46.9591,80.5136,25.3371,-0.041018,-0.01092855,0.0,0 STARLINK-4768,1 53806U 22111AK  23006.91667824 -.01092855  00000-0 -41018-1 0  9990,2 53806  53.2141  46.9591 0001205  80.5136  25.3371 15.29653914  1305,6854.983,94.139,477.674,476.022,0.0
53806.0,STARLINK-4768,PAYLOAD,2023-01-07 06:00:00,15.28888613,0.0001365,53.2142,45.4156,80.6826,61.2947,-0.045637,-0.01195113,0.0,0 STARLINK-4768,1 53806U 22111AK  23007.25001157 -.01195113  00000-0 -45637-1 0  9991,2 53806  53.2142  45.4156 0001365  80.6826  61.2947 15.28888613  1304,6857.27,94.186,480.071,478.199,0.0
53806.0,STARLINK-4768,PAYLOAD,2023-01-07 14:00:01,15.28048292,0.0001367,53.2138,43.8744,72.1894,104.9527,-0.044196,-0.01118182,0.0,0 STARLINK-4768,1 53806U 22111AK  23007.58334491 -.01118182  00000-0 -44196-1 0  9997,2 53806  53.2138  43.8744 0001367  72.1894 104.9527 15.28048292 18530,6859.7840000000015,94.238,482.587,480.711,0.0
53806.0,STARLINK-4768,PAYLOAD,2023-01-08 00:00:00,15.27021213,0.000118,53.2136,41.9471,88.7725,220.9555,-0.044987,-0.01104166,0.0,0 STARLINK-4768,1 53806U 22111AK  23008.00001157 -.01104166  00000-0 -44987-1 0  9990,2 53806  53.2136  41.9471 0001180  88.7725 220.9555 15.27021213  1303,6862.86,94.301,485.535,483.915,0.0
53806.0,STARLINK-4768,PAYLOAD,2023-01-08 06:00:00,15.26439622,0.0001368,53.2137,40.7946,85.3201,159.217,-0.048692,-0.01183811,0.0,0 STARLINK-4768,1 53806U 22111AK  23008.25001157 -.01183811  00000-0 -48692-1 0  9998,2 53806  53.2137  40.7946 0001368  85.3201 159.2170 15.26439622 18635,6864.603,94.337,487.407,485.529,0.0
53806.0,STARLINK-4768,PAYLOAD,2023-01-08 14:00:01,15.25618573,0.0001235,53.2133,39.2588,82.2014,194.5596,-0.048481,-0.0115222,0.0,0 STARLINK-4768,1 53806U 22111AK  23008.58334491 -.01152220  00000-0 -48481-1 0  9990,2 53806  53.2133  39.2588 0001235  82.2014 194.5596 15.25618573  1300,6867.066,94.388,489.779,488.083,0.0
53806.0,STARLINK-4768,PAYLOAD,2023-01-08 22:00:00,15.24771893,0.000122,53.2134,37.7224,101.8208,206.2085,-0.047452,-0.01089181,0.0,0 STARLINK-4768,1 53806U 22111AK  23008.91667824 -.01089181  00000-0 -47452-1 0  9998,2 53806  53.2134  37.7224 0001220 101.8208 206.2085 15.24771893 18731,6869.607,94.44,492.311,490.634,0.0
